{
    "links": {
        "self": "http://www.neowsapp.com/rest/v1/neo/3439811?api_key=iIulBulltgU6a56xZRHN4H3l9WmuAYTsLGpBGhQ2"
    },
    "id": "3439811",
    "neo_reference_id": "3439811",
    "name": "(2008 WH14)",
    "designation": "2008 WH14",
    "nasa_jpl_url": "http://ssd.jpl.nasa.gov/sbdb.cgi?sstr=3439811",
    "absolute_magnitude_h": 26.3,
    "estimated_diameter": {
        "kilometers": {
            "estimated_diameter_min": 0.0146067964,
            "estimated_diameter_max": 0.0326617897
        },
        "meters": {
            "estimated_diameter_min": 14.6067964271,
            "estimated_diameter_max": 32.6617897446
        },
        "miles": {
            "estimated_diameter_min": 0.0090762397,
            "estimated_diameter_max": 0.020295089
        },
        "feet": {
            "estimated_diameter_min": 47.92256199,
            "estimated_diameter_max": 107.1581062656
        }
    },
    "is_potentially_hazardous_asteroid": false,
    "close_approach_data": [
        {
            "close_approach_date": "2008-11-19",
            "close_approach_date_full": "2008-Nov-19 00:42",
            "epoch_date_close_approach": 1227055320000,
            "relative_velocity": {
                "kilometers_per_second": "4.5513460378",
                "kilometers_per_hour": "16384.8457359004",
                "miles_per_hour": "10180.9059518432"
            },
            "miss_distance": {
                "astronomical": "0.0487919829",
                "lunar": "18.9800813481",
                "kilometers": "7299176.714916423",
                "miles": "4535498.0968077174"
            },
            "orbiting_body": "Earth"
        }
    ],
    "orbital_data": {
        "orbit_id": "6",
        "orbit_determination_date": "2017-04-06 09:02:07",
        "first_observation_date": "2008-11-21",
        "last_observation_date": "2008-11-21",
        "data_arc_in_days": null,
        "observations_used": 16,
        "orbit_uncertainty": "9",
        "minimum_orbit_intersection": ".0487334",
        "jupiter_tisserand_invariant": "4.731",
        "epoch_osculation": "2454791.5",
        "eccentricity": ".2562751179473103",
        "semi_major_axis": "1.392273993510598",
        "inclination": "6.569458428940705",
        "ascending_node_longitude": "61.77482011614669",
        "orbital_period": "600.0473102250726",
        "perihelion_distance": "1.035468811608697",
        "perihelion_argument": "351.1224715136486",
        "aphelion_distance": "1.749079175412499",
        "perihelion_time": "2454785.809536664450",
        "mean_anomaly": "3.414008805455023",
        "mean_motion": ".5999526935050623",
        "equinox": "J2000",
        "orbit_class": {
            "orbit_class_type": "AMO",
            "orbit_class_description": "Near-Earth asteroid orbits similar to that of 1221 Amor",
            "orbit_class_range": "1.017 AU < q (perihelion) < 1.3 AU"
        }
    },
    "is_sentry_object": false
}